[
    {
        "Altitude(m)": 607897.6335712951,
        "Argument of Periapsis(deg)": 0.0,
        "Eccentricity": 0.0,
        "Inclination(deg)": 60.0,
        "Latitude(deg)": -14.29304128607561,
        "Longitude(deg)": -23.381219233961367,
        "Mean Anomaly(deg)": -16.363600000000037,
        "RAAN(deg)": 85.00000000000001,
        "Satellite Name": "Test1 395",
        "Satellite Number": 395,
        "Semi-Major Axis(m)": 6980739.136638005,
        "Time(s)": 0
    },
    {
        "Altitude(m)": 607750.8341179464,
        "Argument of Periapsis(deg)": 0.00010418945913296404,
        "Eccentricity": 0.0,
        "Inclination(deg)": 60.0,
        "Latitude(deg)": -13.758882180288227,
        "Longitude(deg)": -23.094151175525834,
        "Mean Anomaly(deg)": -15.743493854538197,
        "RAAN(deg)": 84.99957995086027,
        "Satellite Name": "Test1 395",
        "Satellite Number": 395,
        "Semi-Major Axis(m)": 6980739.136638005,
        "Time(s)": 10
    }
]